[
    {
        "Altitude(m)": 703595.8971288633,
        "Argument of Periapsis(deg)": 0.004556048474650827,
        "Eccentricity": 0.0,
        "Inclination(deg)": 45.0,
        "Latitude(deg)": 25.485290241484513,
        "Longitude(deg)": -41.99036990190267,
        "Mean Anomaly(deg)": 37.340586658992315,
        "RAAN(deg)": 29.995699223416718,
        "Satellite Name": "Constellation 1 134",
        "Satellite Number": 134,
        "Semi-Major Axis(m)": 7083131.272910544,
        "Time(s)": 76
    },
    {
        "Altitude(m)": 703600.8179244117,
        "Argument of Periapsis(deg)": 0.004615996480896233,
        "Eccentricity": 0.0,
        "Inclination(deg)": 45.0,
        "Latitude(deg)": 25.523277591308883,
        "Longitude(deg)": -41.94191245940532,
        "Mean Anomaly(deg)": 37.40128779924221,
        "RAAN(deg)": 29.995642634251144,
        "Satellite Name": "Constellation 1 134",
        "Satellite Number": 134,
        "Semi-Major Axis(m)": 7083131.272910544,
        "Time(s)": 77
    },
    {
        "Altitude(m)": 703605.7477485823,
        "Argument of Periapsis(deg)": 0.004675944487141638,
        "Eccentricity": 0.0,
        "Inclination(deg)": 45.0,
        "Latitude(deg)": 25.561245890389905,
        "Longitude(deg)": -41.89342192642959,
        "Mean Anomaly(deg)": 37.46198893949214,
        "RAAN(deg)": 29.995586045085574,
        "Satellite Name": "Constellation 1 134",
        "Satellite Number": 134,
        "Semi-Major Axis(m)": 7083131.272910544,
        "Time(s)": 78
    },
    {
        "Altitude(m)": 703610.6865640344,
        "Argument of Periapsis(deg)": 0.004735892493387044,
        "Eccentricity": 0.0,
        "Inclination(deg)": 45.0,
        "Latitude(deg)": 25.599195094735787,
        "Longitude(deg)": -41.844898242310975,
        "Mean Anomaly(deg)": 37.52269007974202,
        "RAAN(deg)": 29.995529455920007,
        "Satellite Name": "Constellation 1 134",
        "Satellite Number": 134,
        "Semi-Major Axis(m)": 7083131.272910544,
        "Time(s)": 79
    },
    {
        "Altitude(m)": 703615.634333407,
        "Argument of Periapsis(deg)": 0.004795840499632449,
        "Eccentricity": 0.0,
        "Inclination(deg)": 45.0,
        "Latitude(deg)": 25.637125160290317,
        "Longitude(deg)": -41.79634134638378,
        "Mean Anomaly(deg)": 37.58339121999193,
        "RAAN(deg)": 29.99547286675444,
        "Satellite Name": "Constellation 1 134",
        "Satellite Number": 134,
        "Semi-Major Axis(m)": 7083131.272910544,
        "Time(s)": 80
    },
    {
        "Altitude(m)": 703620.5910192952,
        "Argument of Periapsis(deg)": 0.004855788505877855,
        "Eccentricity": 0.0,
        "Inclination(deg)": 45.0,
        "Latitude(deg)": 25.675036042932863,
        "Longitude(deg)": -41.74775117798161,
        "Mean Anomaly(deg)": 37.644092360241814,
        "RAAN(deg)": 29.995416277588866,
        "Satellite Name": "Constellation 1 134",
        "Satellite Number": 134,
        "Semi-Major Axis(m)": 7083131.272910544,
        "Time(s)": 81
    },
    {
        "Altitude(m)": 703625.5565842831,
        "Argument of Periapsis(deg)": 0.00491573651212326,
        "Eccentricity": 0.0,
        "Inclination(deg)": 45.0,
        "Latitude(deg)": 25.712927698477987,
        "Longitude(deg)": -41.69912784453445,
        "Mean Anomaly(deg)": 37.70479350049172,
        "RAAN(deg)": 29.995359688423303,
        "Satellite Name": "Constellation 1 134",
        "Satellite Number": 134,
        "Semi-Major Axis(m)": 7083131.272910544,
        "Time(s)": 82
    },
    {
        "Altitude(m)": 703630.5309909207,
        "Argument of Periapsis(deg)": 0.004975684518368666,
        "Eccentricity": 0.0,
        "Inclination(deg)": 45.0,
        "Latitude(deg)": 25.750800082676264,
        "Longitude(deg)": -41.6504709491815,
        "Mean Anomaly(deg)": 37.76549464074162,
        "RAAN(deg)": 29.99530309925773,
        "Satellite Name": "Constellation 1 134",
        "Satellite Number": 134,
        "Semi-Major Axis(m)": 7083131.272910544,
        "Time(s)": 83
    },
    {
        "Altitude(m)": 703635.514201728,
        "Argument of Periapsis(deg)": 0.005035632524614072,
        "Eccentricity": 0.0,
        "Inclination(deg)": 45.0,
        "Latitude(deg)": 25.788653151212813,
        "Longitude(deg)": -41.60178059935297,
        "Mean Anomaly(deg)": 37.82619578099151,
        "RAAN(deg)": 29.99524651009216,
        "Satellite Name": "Constellation 1 134",
        "Satellite Number": 134,
        "Semi-Major Axis(m)": 7083131.272910544,
        "Time(s)": 84
    },
    {
        "Altitude(m)": 703640.5061792007,
        "Argument of Periapsis(deg)": 0.0050955805308594785,
        "Eccentricity": 0.0,
        "Inclination(deg)": 45.0,
        "Latitude(deg)": 25.826486859708158,
        "Longitude(deg)": -41.55305673438273,
        "Mean Anomaly(deg)": 37.88689692124141,
        "RAAN(deg)": 29.995189920926585,
        "Satellite Name": "Constellation 1 134",
        "Satellite Number": 134,
        "Semi-Major Axis(m)": 7083131.272910544,
        "Time(s)": 85
    },
    {
        "Altitude(m)": 703645.5068858122,
        "Argument of Periapsis(deg)": 0.005155528537104883,
        "Eccentricity": 0.0,
        "Inclination(deg)": 45.0,
        "Latitude(deg)": 25.864301163717922,
        "Longitude(deg)": -41.50429929360542,
        "Mean Anomaly(deg)": 37.947598061491306,
        "RAAN(deg)": 29.99513333176102,
        "Satellite Name": "Constellation 1 134",
        "Satellite Number": 134,
        "Semi-Major Axis(m)": 7083131.272910544,
        "Time(s)": 86
    },
    {
        "Altitude(m)": 703650.5162839997,
        "Argument of Periapsis(deg)": 0.0052154765433502885,
        "Eccentricity": 0.0,
        "Inclination(deg)": 45.0,
        "Latitude(deg)": 25.90209601873259,
        "Longitude(deg)": -41.455508216357096,
        "Mean Anomaly(deg)": 38.00829920174123,
        "RAAN(deg)": 29.995076742595447,
        "Satellite Name": "Constellation 1 134",
        "Satellite Number": 134,
        "Semi-Major Axis(m)": 7083131.272910544,
        "Time(s)": 87
    },
    {
        "Altitude(m)": 703655.534336184,
        "Argument of Periapsis(deg)": 0.005275424549595694,
        "Eccentricity": 0.0,
        "Inclination(deg)": 45.0,
        "Latitude(deg)": 25.939871380177582,
        "Longitude(deg)": -41.40668344197535,
        "Mean Anomaly(deg)": 38.06900034199112,
        "RAAN(deg)": 29.99502015342988,
        "Satellite Name": "Constellation 1 134",
        "Satellite Number": 134,
        "Semi-Major Axis(m)": 7083131.272910544,
        "Time(s)": 88
    },
    {
        "Altitude(m)": 703660.5610047542,
        "Argument of Periapsis(deg)": 0.0053353725558411,
        "Eccentricity": 0.0,
        "Inclination(deg)": 45.0,
        "Latitude(deg)": 25.97762720341279,
        "Longitude(deg)": -41.35782507789676,
        "Mean Anomaly(deg)": 38.12970148224102,
        "RAAN(deg)": 29.99496356426431,
        "Satellite Name": "Constellation 1 134",
        "Satellite Number": 134,
        "Semi-Major Axis(m)": 7083131.272910544,
        "Time(s)": 89
    },
    {
        "Altitude(m)": 703665.5962520731,
        "Argument of Periapsis(deg)": 0.005395320562086505,
        "Eccentricity": 0.0,
        "Inclination(deg)": 45.0,
        "Latitude(deg)": 26.015363443733523,
        "Longitude(deg)": -41.308932727269166,
        "Mean Anomaly(deg)": 38.190402622490915,
        "RAAN(deg)": 29.994906975098743,
        "Satellite Name": "Constellation 1 134",
        "Satellite Number": 134,
        "Semi-Major Axis(m)": 7083131.272910544,
        "Time(s)": 90
    },
    {
        "Altitude(m)": 703670.6400404765,
        "Argument of Periapsis(deg)": 0.00545526856833191,
        "Eccentricity": 0.0,
        "Inclination(deg)": 45.0,
        "Latitude(deg)": 26.05308005636892,
        "Longitude(deg)": -41.26000649753405,
        "Mean Anomaly(deg)": 38.25110376274082,
        "RAAN(deg)": 29.99485038593317,
        "Satellite Name": "Constellation 1 134",
        "Satellite Number": 134,
        "Semi-Major Axis(m)": 7083131.272910544,
        "Time(s)": 91
    },
    {
        "Altitude(m)": 703675.6923322821,
        "Argument of Periapsis(deg)": 0.005515216574577317,
        "Eccentricity": 0.0,
        "Inclination(deg)": 45.0,
        "Latitude(deg)": 26.090776996482894,
        "Longitude(deg)": -41.211046328038876,
        "Mean Anomaly(deg)": 38.311804902990716,
        "RAAN(deg)": 29.994793796767606,
        "Satellite Name": "Constellation 1 134",
        "Satellite Number": 134,
        "Semi-Major Axis(m)": 7083131.272910544,
        "Time(s)": 92
    },
    {
        "Altitude(m)": 703680.7530897773,
        "Argument of Periapsis(deg)": 0.005575164580822722,
        "Eccentricity": 0.0,
        "Inclination(deg)": 45.0,
        "Latitude(deg)": 26.12845421917372,
        "Longitude(deg)": -41.162052158134564,
        "Mean Anomaly(deg)": 38.372506043240605,
        "RAAN(deg)": 29.994737207602032,
        "Satellite Name": "Constellation 1 134",
        "Satellite Number": 134,
        "Semi-Major Axis(m)": 7083131.272910544,
        "Time(s)": 93
    },
    {
        "Altitude(m)": 703685.822275218,
        "Argument of Periapsis(deg)": 0.005635112587068129,
        "Eccentricity": 0.0,
        "Inclination(deg)": 45.0,
        "Latitude(deg)": 26.166111679474,
        "Longitude(deg)": -41.11302392717565,
        "Mean Anomaly(deg)": 38.43320718349051,
        "RAAN(deg)": 29.994680618436465,
        "Satellite Name": "Constellation 1 134",
        "Satellite Number": 134,
        "Semi-Major Axis(m)": 7083131.272910544,
        "Time(s)": 94
    }
]